SKYSAT-C13              
1 43802U 18099AW  26068.66503718  .00089861  00000+0  55860-3 0  9990
2 43802  96.9402 116.3001 0003986 199.1701 160.9417 15.76710150407164
STARLINK-11412 [DTC]    
1 63062U 25035L   26068.26299389  .00310812  00000+0  23360-2 0  9992
2 63062  42.9998  17.9209 0001736 294.9441  65.1247 15.70842985 61155
